# From MPEC 2024-JU4
C/2020 P3 (ATLAS),h,04/22.9783/2021,61.8530,19.4850,82.3525,1.003747,6.816287,2000,6.0,4.0
# From MPEC 2022-PB4
C/2020 PV6 (PANSTARRS),e,128.1514,329.1270,71.2768,41.63320,0.0036690,0.94497289,5.1704,08/05.0/2025,2000,g 10.0,4.0
# From MPEC 2022-L66
C/2020 Q1 (Borisov),e,142.9206,52.4136,10.0314,62.39423,0.0019998,0.97885428,0.0000,08/15.3657/2020,2000,g 14.0,4.0
# From MPEC 2023-CD7
C/2020 Q2 (PANSTARRS),e,3.3358,179.8285,118.1979,10.60088,0.0285556,0.48876900,57.6647,08/05.0/2025,2000,g 12.0,3.2
# From MPEC 2024-F34
C/2020 R2 (PANSTARRS),e,53.2144,195.1288,211.8868,430.4810,0.0001104,0.98908286,0.0000,02/25.3527/2022,2000,g  9.0,4.0
# From MPEC 2022-K19
C/2020 R4 (ATLAS),e,164.4019,323.2313,46.5064,97.09664,0.0010301,0.98949035,0.0000,03/02.1831/2021,2000,g 13.5,4.0
# From MPEC 2023-C45
P/2020 R5 (PANSTARRS),e,11.4394,272.9375,82.7530,4.993474,0.0883283,0.31307755,167.4446,08/05.0/2025,2000,g  9.5,6.0
# From MPEC 2021-Y10
C/2020 R6 (Rankin),e,82.8959,12.2392,271.9975,290.5923,0.0001990,0.98919605,0.0000,09/06.7801/2019,2000,g 11.0,4.0
# From MPEC 2024-PC5
C/2020 R7 (ATLAS),e,114.9030,268.3102,347.7557,7519,0.0000015,0.99960745,0.0000,09/16.0200/2022,2000,g  7.0,3.2
# From MPEC 2021-BE3
P/2020 S1 (PANSTARRS),e,13.7144,129.4891,255.1686,6.002197,0.0670253,0.50680773,111.3399,08/05.0/2025,2000,g 14.0,4.0
# From MPEC 2022-ST7
C/2020 S2 (PANSTARRS),e,22.3729,197.7101,202.4286,10.25154,0.0300276,0.82790889,50.6564,08/05.0/2025,2000,g 17.0,4.0
# From MPEC 2024-JU4
C/2020 S3 (Erasmus),e,20.0702,222.5123,350.0482,141.1092,0.0005880,0.99721935,0.0000,12/11.3657/2020,2000,g 13.5,3.2
# From MPEC 2024-N80
C/2020 S4 (PANSTARRS),h,02/09.6055/2023,20.5704,117.6810,21.0637,1.002791,3.370503,2000,8.5,3.2
# From MPEC 2021-BE3
P/2020 S5 (PANSTARRS),e,12.3400,316.0185,53.2762,4.058589,0.1205429,0.33729257,219.7634,08/05.0/2025,2000,g 14.5,4.0
# From MPEC 2021-BE3
P/2020 S7 (PANSTARRS),e,16.0695,328.0816,40.6648,5.036958,0.0871870,0.40945120,150.0979,08/05.0/2025,2000,g 14.5,4.0
# From MPEC 2021-P47
C/2020 S8 (Lemmon),e,108.5450,24.0038,160.1243,238.5070,0.0002676,0.99012403,0.0000,04/10.3340/2021,2000,g 12.5,4.0
# From MPEC 2022-TD3
C/2020 T2 (Palomar),e,27.8399,83.0319,150.3404,268.2814,0.0002243,0.99235121,0.0000,07/10.5630/2021,2000,g 11.0,3.2
# From MPEC 2021-N06
P/2020 T3 (PANSTARRS),e,7.2984,73.9915,357.0828,3.516013,0.1494956,0.59243616,247.5091,08/05.0/2025,2000,g 18.0,3.2
# From MPEC 2021-N06
C/2020 T4 (PANSTARRS),h,07/06.1374/2021,83.8252,50.6053,79.5685,1.000662,2.187406,2000,13.0,3.2
# From MPEC 2021-BE3
C/2020 T5 (Lemmon),e,66.5591,237.8455,90.3853,603.3861,0.0000665,0.99685408,0.0000,10/07.6512/2020,2000,g 16.0,4.0
# From MPEC 2021-N06
P/2020 U2 (PANSTARRS),e,6.4198,342.8131,84.7770,3.777827,0.1342274,0.51133122,225.7048,08/05.0/2025,2000,g 18.0,4.0
# From MPEC 2021-W31
C/2020 U3 (Rankin),e,30.1385,282.5977,124.5237,67.68593,0.0017699,0.96622394,2.9045,08/05.0/2025,2000,g 15.0,4.0
# From MPEC 2024-TD8
C/2020 U4 (PANSTARRS),h,04/10.0517/2022,167.0034,120.4057,70.1785,1.001274,5.362108,2000,7.0,4.0
# From MPEC 2024-GJ3
C/2020 U5 (PANSTARRS),e,97.3135,107.3132,75.4670,12506,0.0000007,0.99969959,0.0000,04/28.4144/2022,2000,g  8.0,4.0
# From MPEC 2025-OF9
C/2020 V2 (ZTF),h,05/08.5329/2023,131.6119,212.4025,162.4632,1.001081,2.229427,2000,4.9,4.0
# From MPEC 2023-D72
P/2020 V3 (PANSTARRS),e,23.0203,198.2695,249.8216,8.408683,0.0404215,0.25788575,65.9323,08/05.0/2025,2000,g  8.3,4.0
# From MPEC 2025-OF9
P/2020 V4 (Rankin),e,14.2363,203.4889,257.2622,9.398844,0.0342052,0.45159723,50.4940,08/05.0/2025,2000,g  9.0,4.0
# From MPEC 2021-BE3
P/2020 W1 (Rankin),e,10.7770,124.3854,265.4012,7.226289,0.0507377,0.26540952,98.5699,08/05.0/2025,2000,g 10.0,4.0
# From MPEC 2021-BE3
C/2020 W5 (Lemmon),h,11/30.9683/2020,88.6150,75.4676,24.6116,1.002205,3.371171,2000,15.0,4.0
# From MPEC 2024-PC5
P/2020 WJ5 (Lemmon),e,22.2882,177.7611,338.0896,6.015511,0.0668029,0.17216259,99.9622,08/05.0/2025,2000,g  8.5,4.0
# From MPEC 2024-F34
P/2020 X1 (ATLAS),e,31.6911,55.9883,323.5280,4.536368,0.1020097,0.36434785,187.9137,08/05.0/2025,2000,g 13.0,4.0
# From MPEC 2024-A43
C/2020 X2 (ATLAS),e,18.1868,105.3543,347.5785,16.54487,0.0146457,0.76834263,25.2166,08/05.0/2025,2000,g 10.6,4.0
# From MPEC 2021-S45
C/2020 X4 (Leonard),e,80.6600,161.9582,140.2887,40.57706,0.0038131,0.87125932,6.5723,08/05.0/2025,2000,g  9.0,4.0
# From MPEC 2024-YC7
C/2020 Y2 (ATLAS),e,101.2164,26.5404,266.4151,1256,0.0000221,0.99749571,0.0000,06/17.7377/2022,2000,g  6.5,4.0
# From MPEC 2021-R75
C/2020 Y3 (ATLAS),e,83.1469,191.3389,341.8486,137.4183,0.0006118,0.98551762,0.0000,12/03.2273/2020,2000,g 13.5,4.0
# From MPEC 2025-A40
C/2021 A1 (Leonard),h,01/03.8539/2022,132.7529,255.9107,225.1349,1.000250,0.615263,2000,8.5,4.0
# From MPEC 2025-A40
C/2021 A2 (NEOWISE),e,107.0575,125.0569,338.8030,229.6709,0.0002832,0.99383214,0.0000,01/21.8487/2021,2000,g 13.5,4.0
# From MPEC 2022-ED3
C/2021 A4 (NEOWISE),e,111.6532,307.0888,204.7565,42.54174,0.0035521,0.97295647,0.0000,03/19.5915/2021,2000,g 16.0,4.0
# From MPEC 2021-BE3
P/2021 A5 (PANSTARRS),e,18.1897,328.8096,61.5478,3.046270,0.1853752,0.13977570,319.5276,08/05.0/2025,2000,g 15.0,4.0
# From MPEC 2024-P23
C/2021 A6 (PANSTARRS),e,75.5622,164.0223,351.6280,12621,0.0000007,0.99937208,0.0000,05/03.1024/2021,2000,g  7.0,4.0
# From MPEC 2022-M88
C/2021 A7 (NEOWISE),e,78.2222,154.3969,356.0030,1899,0.0000119,0.99896496,0.0000,07/15.1648/2021,2000,g 10.0,4.0
# From MPC182879
C/2021 A9 (PANSTARRS),e,158.0181,314.8536,211.6434,134507,0.0000000,0.99994228,0.0000,12/04.0565/2023,2000,g  6.0,4.0
# From MPEC 2021-N06
C/2021 A10 (NEOWISE),e,151.9982,188.8478,82.6563,89.75674,0.0011591,0.98588325,0.0000,03/14.7015/2021,2000,g 19.0,4.0
# From MPEC 2022-L66
C/2021 B2 (PANSTARRS),e,38.0875,120.4347,335.1274,410.6984,0.0001184,0.99387554,0.0000,05/04.8642/2021,2000,g 14.0,4.0
# From MPEC 2021-N06
C/2021 B3 (NEOWISE),e,119.4782,67.2842,293.6104,34.22278,0.0049230,0.93662703,7.9249,08/05.0/2025,2000,g 13.5,4.0
# From MPEC 2023-KD6
C/2021 C1 (Rankin),e,143.0432,186.8224,336.0520,1774,0.0000132,0.99804267,0.0000,12/05.6492/2020,2000,g 11.5,4.0
# From MPEC 2021-U31
P/2021 C2 (PANSTARRS),e,21.9379,66.4552,78.7260,9.546227,0.0334161,0.48842007,54.2103,08/05.0/2025,2000,g 12.0,4.0
# From MPEC 2024-M41
C/2021 C3 (Catalina),e,122.2116,181.8472,356.9729,60.39117,0.0021001,0.96234090,3.4357,08/05.0/2025,2000,g 14.0,4.0
# From MPEC 2022-M88
C/2021 C4 (ATLAS),e,132.8303,194.2248,320.0178,3588,0.0000046,0.99874765,0.0000,01/16.1079/2021,2000,g  9.0,4.0
# From MPEC 2024-N80
C/2021 C5 (PANSTARRS),e,50.8037,323.6738,270.8861,1695,0.0000141,0.99808877,0.0000,02/10.9792/2023,2000,g  9.0,4.0
# From MPEC 2022-YB4
C/2021 C6 (Lemmon),e,164.6096,332.3247,203.8671,2690,0.0000071,0.99877857,0.0000,11/11.8411/2021,2000,g 12.0,4.0
# From MPEC 2022-F14
C/2021 D1 (SWAN),e,31.3522,311.1556,72.4717,102.0388,0.0009562,0.99109653,0.0000,02/27.2942/2021,2000,g 13.0,4.0
# From MPEC 2023-J29
C/2021 D2 (ZTF),h,02/03.6125/2022,83.7702,305.6252,125.0711,1.001419,2.949878,2000,9.0,4.0
# From MPEC 2022-UY9
A/2021 E2,e,167.4943,190.7451,342.2123,199.5034,0.0003498,0.98855618,0.0000,12/08.8433/2020,2000,g 15.0,2.0
# From MPEC 2024-GJ3
C/2021 E3 (ZTF),e,112.5235,104.4839,228.7969,8419,0.0000013,0.99978888,0.0000,06/11.0566/2022,2000,g  8.5,4.0
# From MPEC 2024-N80
A/2021 E4,e,116.3839,171.1391,48.2852,503.8564,0.0000871,0.99071133,0.0000,04/24.8210/2022,2000,g 13.5,2.0
# From MPEC 2022-QD9
C/2021 F1 (Lemmon-PANSTARRS),e,107.2879,203.5564,146.9507,248.8172,0.0002511,0.99598350,0.0000,04/06.7362/2022,2000,g 13.5,4.0
# From MPEC 2021-J72
C/2021 G1 (Leonard),e,131.5465,270.6972,107.4366,70.99929,0.0016475,0.95171459,2.4329,08/05.0/2025,2000,g 14.0,4.0
# From MPEC 2025-OF9
C/2021 G2 (ATLAS),h,09/09.1306/2024,48.4660,221.0942,343.2656,1.000763,4.982233,2000,5.5,4.0
# From MPEC 2022-X67
C/2021 G3 (PANSTARRS),e,102.8735,147.3423,10.6006,8881,0.0000012,0.99941640,0.0000,10/17.8559/2021,2000,g 10.5,4.0
# From MPEC 2021-Y10
P/2021 HS (PANSTARRS),e,12.1537,262.3549,46.1170,4.193281,0.1147818,0.80946644,167.7388,08/05.0/2025,2000,g 22.0,4.0
# From MPEC 2022-C56
C/2021 J1 (Maury-Attard),e,92.7073,88.4332,147.1909,26.18802,0.0073544,0.93380753,11.9699,08/05.0/2025,2000,g 15.5,4.0
# From MPEC 2023-XP6
C/2021 J2 (PANSTARRS),e,156.2116,23.3076,171.8782,111.5073,0.0008370,0.95783687,1.1839,08/05.0/2025,2000,g 12.0,4.0
# From MPEC 2024-F34
P/2021 J3 (ATLAS),e,14.5143,110.9888,125.6151,8.888158,0.0371952,0.44945369,82.8624,08/05.0/2025,2000,g  7.0,4.0
# From MPEC 2022-O08
C/2021 K1 (ATLAS),e,16.2708,140.9249,184.2200,12.60178,0.0220321,0.80142674,34.2771,08/05.0/2025,2000,g 11.0,4.0
# From MPEC 2022-O01
C/2021 K2 (MASTER),h,09/09.2054/2021,100.8716,282.3389,343.2706,1.000405,5.463180,2000,8.0,4.0
# From MPEC 2022-L66
C/2021 K3 (Catalina),h,02/03.6096/2022,134.7805,114.6103,182.0084,1.004148,5.227177,2000,10.0,4.0
# From MPEC 2021-W31
P/2021 L2 (Leonard),e,21.0640,266.6515,51.4258,4.047335,0.1210460,0.52086353,178.4531,08/05.0/2025,2000,g 17.0,4.0
# From MPEC 2024-H50
C/2021 L3 (Borisov),h,02/15.0088/2022,78.5356,345.0185,91.6528,1.004528,8.460482,2000,6.0,4.0
# From MPEC 2022-TA0
P/2021 N1 (ZTF),e,11.4855,301.1341,21.2248,2.979876,0.1916050,0.67572561,291.6267,08/05.0/2025,2000,g 19.0,4.0
# From MPEC 2024-GJ3
P/2021 N2 (Fuls),e,13.0599,221.7442,177.6350,6.947071,0.0538272,0.45209179,73.1985,08/05.0/2025,2000,g  9.5,4.0
# From MPEC 2022-YB4
C/2021 N3 (PANSTARRS),e,26.7649,337.5289,304.5874,140.0531,0.0005947,0.95921906,1.0788,08/05.0/2025,2000,g  8.5,4.0
# From MPEC 2022-A21
C/2021 O1 (Nishimura),e,27.5674,41.5350,74.4338,5301,0.0000026,0.99985235,0.0000,08/14.8178/2021,2000,g 10.5,4.0
# From MPEC 2022-L66
C/2021 O3 (PANSTARRS),h,04/21.3075/2022,56.8313,188.7680,300.0280,1.000053,0.285025,2000,10.5,4.0
# From MPEC 2024-F34
C/2021 P1 (PANSTARRS),e,51.6184,359.7139,40.5277,2662,0.0000072,0.99835477,0.0000,06/02.5503/2022,2000,g 11.0,4.0
# From MPC185656
